COMMENT,ORIGINATOR,NORAD_CAT_ID,OBJECT_NAME,OBJECT_TYPE,CLASSIFICATION_TYPE,INTLDES,EPOCH,EPOCH_MICROSECONDS,MEAN_MOTION,ECCENTRICITY,INCLINATION,RA_OF_ASC_NODE,ARG_OF_PERICENTER,MEAN_ANOMALY,EPHEMERIS_TYPE,ELEMENT_SET_NO,REV_AT_EPOCH,BSTAR,MEAN_MOTION_DOT,MEAN_MOTION_DDOT,FILE,TLE_LINE0,TLE_LINE1,TLE_LINE2,OBJECT_ID,OBJECT_NUMBER,SEMIMAJOR_AXIS,PERIOD,APOGEE,PERIGEE,DECAYED
"GENERATED VIA SPACETRACK.ORG API","18 SPCS","55101","SPACEBEE-159","PAYLOAD","U","23001CW","2023-06-12 10:07:50","320416","15.20316577","0.0016183","97.4771","223.639","25.7392","334.4645","0","999","2438","0.00079359","0.00017267","0","3931272","0 SPACEBEE-159","1 55101U 23001CW  23163.42211019  .00017267  00000-0  79359-3 0  9992","2 55101  97.4771 223.6390 0016183  25.7392 334.4645 15.20316577 24384","2023-001CW","55101","6883.022","94.717","516.026","493.748","0"
"GENERATED VIA SPACETRACK.ORG API","18 SPCS","55101","SPACEBEE-159","PAYLOAD","U","23001CW","2023-06-12 10:07:50","320416","15.20316577","0.0016183","97.4771","223.639","25.7392","334.4645","0","999","2438","0.00079359","0.00017267","0","3931287","0 SPACEBEE-159","1 55101U 23001CW  23163.42211019  .00017267  00000-0  79359-3 0  9992","2 55101  97.4771 223.6390 0016183  25.7392 334.4645 15.20316577 24384","2023-001CW","55101","6883.022","94.717","516.026","493.748","0"
"GENERATED VIA SPACETRACK.ORG API","18 SPCS","55101","SPACEBEE-159","PAYLOAD","U","23001CW","2023-06-13 09:49:29","38368","15.20348063","0.0016071","97.477","224.618","22.2536","337.9393","0","999","2453","0.00071486","0.00015557","0","3932134","0 SPACEBEE-159","1 55101U 23001CW  23164.40936387  .00015557  00000-0  71486-3 0  9996","2 55101  97.4770 224.6180 0016071  22.2536 337.9393 15.20348063 24539","2023-001CW","55101","6882.927","94.715","515.853","493.730","0"
"GENERATED VIA SPACETRACK.ORG API","18 SPCS","55101","SPACEBEE-159","PAYLOAD","U","23001CW","2023-06-13 14:33:48","571488","15.20355319","0.0016032","97.477","224.8138","21.4567","338.7337","0","999","2456","0.00074448","0.00016209","0","3932355","0 SPACEBEE-159","1 55101U 23001CW  23164.60681217  .00016209  00000-0  74448-3 0  9993","2 55101  97.4770 224.8138 0016032  21.4567 338.7337 15.20355319 24568","2023-001CW","55101","6882.905","94.715","515.805","493.735","0"
"GENERATED VIA SPACETRACK.ORG API","18 SPCS","55101","SPACEBEE-159","PAYLOAD","U","23001CW","2023-06-13 14:33:48","571488","15.20355319","0.0016032","97.477","224.8138","21.4567","338.7337","0","999","2456","0.00074448","0.00016209","0","3932371","0 SPACEBEE-159","1 55101U 23001CW  23164.60681217  .00016209  00000-0  74448-3 0  9993","2 55101  97.4770 224.8138 0016032  21.4567 338.7337 15.20355319 24568","2023-001CW","55101","6882.905","94.715","515.805","493.735","0"
"GENERATED VIA SPACETRACK.ORG API","18 SPCS","55101","SPACEBEE-159","PAYLOAD","U","23001CW","2023-06-14 11:05:52","360512","15.20381607","0.0015927","97.4771","225.6622","18.3154","341.8651","0","999","2469","0.0006923","0.00015077","0","3932965","0 SPACEBEE-159","1 55101U 23001CW  23165.46241158  .00015077  00000-0  69230-3 0  9999","2 55101  97.4771 225.6622 0015927  18.3154 341.8651 15.20381607 24692","2023-001CW","55101","6882.826","94.713","515.653","493.728","0"
"GENERATED VIA SPACETRACK.ORG API","18 SPCS","55101","SPACEBEE-159","PAYLOAD","U","23001CW","2023-06-14 18:59:44","232288","15.20392861","0.0015866","97.477","225.9884","17.0767","343.0998","0","999","2474","0.00071078","0.00015486","0","3933215","0 SPACEBEE-159","1 55101U 23001CW  23165.79148417  .00015486  00000-0  71078-3 0  9996","2 55101  97.4770 225.9884 0015866  17.0767 343.0998 15.20392861 24740","2023-001CW","55101","6882.792","94.712","515.577","493.736","0"
"GENERATED VIA SPACETRACK.ORG API","18 SPCS","55101","SPACEBEE-159","PAYLOAD","U","23001CW","2023-06-15 02:53:35","932128","15.20403021","0.0015815","97.4771","226.3147","15.9054","344.2675","0","999","2479","0.00070076","0.00015271","0","3933524","0 SPACEBEE-159","1 55101U 23001CW  23166.12055477  .00015271  00000-0  70076-3 0  9996","2 55101  97.4771 226.3147 0015815  15.9054 344.2675 15.20403021 24799","2023-001CW","55101","6882.761","94.712","515.511","493.741","0"
"GENERATED VIA SPACETRACK.ORG API","18 SPCS","55101","SPACEBEE-159","PAYLOAD","U","23001CW","2023-06-15 02:53:35","932128","15.20403021","0.0015815","97.4771","226.3147","15.9054","344.2675","0","999","2479","0.00070076","0.00015271","0","3933820","0 SPACEBEE-159","1 55101U 23001CW  23166.12055477  .00015271  00000-0  70076-3 0  9996","2 55101  97.4771 226.3147 0015815  15.9054 344.2675 15.20403021 24799","2023-001CW","55101","6882.761","94.712","515.511","493.741","0"
"GENERATED VIA SPACETRACK.ORG API","18 SPCS","55101","SPACEBEE-159","PAYLOAD","U","23001CW","2023-06-15 17:06:32","476896","15.20422554","0.001577","97.4772","226.9022","13.758","346.4081","0","999","2488","0.00073359","0.00016","0","3934071","0 SPACEBEE-159","1 55101U 23001CW  23166.71287589  .00016000  00000-0  73359-3 0  9990","2 55101  97.4772 226.9022 0015770  13.7580 346.4081 15.20422554 24885","2023-001CW","55101","6882.702","94.711","515.421","493.713","0"
"GENERATED VIA SPACETRACK.ORG API","18 SPCS","55101","SPACEBEE-159","PAYLOAD","U","23001CW","2023-06-16 02:35:09","764160","15.20442606","0.0015785","97.4772","227.2939","12.4925","347.6698","0","999","2494","0.00098157","0.0002146","0","3934632","0 SPACEBEE-159","1 55101U 23001CW  23167.10775190  .00021460  00000-0  98157-3 0  9993","2 55101  97.4772 227.2939 0015785  12.4925 347.6698 15.20442606 24945","2023-001CW","55101","6882.642","94.709","515.371","493.642","0"
"GENERATED VIA SPACETRACK.ORG API","18 SPCS","55101","SPACEBEE-159","PAYLOAD","U","23001CW","2023-06-16 02:35:09","764160","15.20442606","0.0015785","97.4772","227.2939","12.4925","347.6698","0","999","2494","0.00098157","0.0002146","0","3934686","0 SPACEBEE-159","1 55101U 23001CW  23167.10775190  .00021460  00000-0  98157-3 0  9993","2 55101  97.4772 227.2939 0015785  12.4925 347.6698 15.20442606 24945","2023-001CW","55101","6882.642","94.709","515.371","493.642","0"
"GENERATED VIA SPACETRACK.ORG API","18 SPCS","55101","SPACEBEE-159","PAYLOAD","U","23001CW","2023-06-16 16:48:04","834080","15.20469793","0.0015714","97.477","227.8814","10.5577","349.5985","0","999","2503","0.0010264","0.00022464","0","3934949","0 SPACEBEE-159","1 55101U 23001CW  23167.70005595  .00022464  00000-0  10264-2 0  9991","2 55101  97.4770 227.8814 0015714  10.5577 349.5985 15.20469793 25032","2023-001CW","55101","6882.560","94.708","515.240","493.609","0"
"GENERATED VIA SPACETRACK.ORG API","18 SPCS","55101","SPACEBEE-159","PAYLOAD","U","23001CW","2023-06-17 10:10:31","9728","15.20495821","0.0015602","97.4769","228.5995","8.0536","352.0947","0","999","2514","0.00079978","0.00017489","0","3935577","0 SPACEBEE-159","1 55101U 23001CW  23168.42397002  .00017489  00000-0  79978-3 0  9997","2 55101  97.4769 228.5995 0015602   8.0536 352.0947 15.20495821 25141","2023-001CW","55101","6882.481","94.706","515.084","493.608","0"
"GENERATED VIA SPACETRACK.ORG API","18 SPCS","55101","SPACEBEE-159","PAYLOAD","U","23001CW","2023-06-17 10:10:31","9728","15.20495821","0.0015602","97.4769","228.5995","8.0536","352.0947","0","999","2514","0.00079978","0.00017489","0","3935591","0 SPACEBEE-159","1 55101U 23001CW  23168.42397002  .00017489  00000-0  79978-3 0  9997","2 55101  97.4769 228.5995 0015602   8.0536 352.0947 15.20495821 25141","2023-001CW","55101","6882.481","94.706","515.084","493.608","0"
"GENERATED VIA SPACETRACK.ORG API","18 SPCS","55101","SPACEBEE-159","PAYLOAD","U","23001CW","2023-06-17 19:39:06","626880","15.20510572","0.0015549","97.4767","228.9912","6.5816","353.562","0","999","2520","0.00075331","0.00016474","0","3935891","0 SPACEBEE-159","1 55101U 23001CW  23168.81882670  .00016474  00000-0  75331-3 0  9992","2 55101  97.4767 228.9912 0015549   6.5816 353.5620 15.20510572 25208","2023-001CW","55101","6882.436","94.705","515.003","493.600","0"
"GENERATED VIA SPACETRACK.ORG API","18 SPCS","55101","SPACEBEE-159","PAYLOAD","U","23001CW","2023-06-18 09:51:59","525568","15.20529806","0.0015464","97.4765","229.5786","4.2273","355.909","0","999","2529","0.00072074","0.00015765","0","3936420","0 SPACEBEE-159","1 55101U 23001CW  23169.41110562  .00015765  00000-0  72074-3 0  9996","2 55101  97.4765 229.5786 0015464   4.2273 355.9090 15.20529806 25296","2023-001CW","55101","6882.378","94.704","514.886","493.601","0"
"GENERATED VIA SPACETRACK.ORG API","18 SPCS","55101","SPACEBEE-159","PAYLOAD","U","23001CW","2023-06-18 17:45:48","629952","15.20542308","0.0015423","97.4763","229.905","2.9091","357.2232","0","999","2534","0.00077306","0.00016923","0","3936984","0 SPACEBEE-159","1 55101U 23001CW  23169.74014618  .00016923  00000-0  77306-3 0  9997","2 55101  97.4763 229.9050 0015423   2.9091 357.2232 15.20542308 25341","2023-001CW","55101","6882.341","94.703","514.820","493.591","0"
"GENERATED VIA SPACETRACK.ORG API","18 SPCS","55101","SPACEBEE-159","PAYLOAD","U","23001CW","2023-06-19 09:33:26","235648","15.20563559","0.0015349","97.4761","230.5578","0.3213","359.803","0","999","2544","0.00076543","0.00016765","0","3937338","0 SPACEBEE-159","1 55101U 23001CW  23170.39822032  .00016765  00000-0  76543-3 0  9993","2 55101  97.4761 230.5578 0015349   0.3213 359.8030 15.20563559 25443","2023-001CW","55101","6882.277","94.702","514.705","493.578","0"
"GENERATED VIA SPACETRACK.ORG API","18 SPCS","55101","SPACEBEE-159","PAYLOAD","U","23001CW","2023-06-19 14:17:43","352160","15.20571176","0.0015327","97.476","230.7536","359.5422","0.5796","0","999","2547","0.00079309","0.00017378","0","3937509","0 SPACEBEE-159","1 55101U 23001CW  23170.59564065  .00017378  00000-0  79309-3 0  9998","2 55101  97.4760 230.7536 0015327 359.5422   0.5796 15.20571176 25471","2023-001CW","55101","6882.254","94.701","514.667","493.570","0"
